IRIDIUM 155             
1 43573U 18061E   24036.56289617  .00000117  00000+0  34701-4 0  9994
2 43573  86.3924  57.1875 0001998  86.7017 273.4407 14.34216973289720
IRIDIUM 154             
1 43574U 18061F   24037.24155662 -.00000156  00000+0 -62926-4 0  9998
2 43574  86.3925  56.9951 0002284  89.2363 270.9094 14.34216226289865
IRIDIUM 163             
1 43575U 18061G   24036.59461453 -.00000116  00000+0 -48371-4 0  9998
2 43575  86.3924  57.2079 0002193  89.5763 270.5684 14.34214834289747
IRIDIUM 156             
1 43576U 18061H   24037.47621291  .00000254  00000+0  83710-4 0  9992
2 43576  86.3927  56.8450 0002077  97.2306 262.9126 14.34222547289857
IRIDIUM 164             
1 43577U 18061J   24037.45720138  .00000184  00000+0  58625-4 0  9990
2 43577  86.3927  56.8800 0002297  96.7961 263.3496 14.34217522289900
IRIDIUM 159             
1 43578U 18061K   24037.14641198  .00000047  00000+0  98359-5 0  9992
2 43578  86.3926  56.9650 0002299  88.9470 271.1989 14.34215665289825
IRIDIUM 180             
1 43922U 19002A   24037.42498343  .00000453  00000+0  15457-3 0  9991
2 43922  86.4005 353.7389 0002271  86.5472 273.5984 14.34219386265515
IRIDIUM 176             
1 43923U 19002B   24036.92067362  .00001597  00000+0  24928-3 0  9992
2 43923  86.6134 353.9783 0002325  90.2028 269.9455 14.72272861272384
IRIDIUM 168             
1 43924U 19002C   24036.93026560  .00000048  00000+0  99814-5 0  9997
2 43924  86.4010 353.9985 0002242  87.8797 272.2656 14.34217923265381
IRIDIUM 173             
1 43925U 19002D   24037.12688182  .00000392  00000+0  13304-3 0  9994
2 43925  86.4005 353.8402 0002209  82.1071 278.0376 14.34217278265404
IRIDIUM 169             
1 43926U 19002E   24037.03893496  .00000495  00000+0  15539-3 0  9997
2 43926  86.4224  25.4736 0001586   1.8232 358.2972 14.38605963266279
IRIDIUM 172             
1 43927U 19002F   24036.91123170  .00000360  00000+0  12162-3 0  9999
2 43927  86.4005 353.9357 0002270  86.4568 273.6887 14.34221364265377
IRIDIUM 175             
1 43928U 19002G   24037.32254650  .00001767  00000+0  27615-3 0  9995
2 43928  86.1547 334.4191 0002321  84.6530 275.4951 14.72271423272432
IRIDIUM 171             
1 43929U 19002H   24036.96197744  .00000234  00000+0  76461-4 0  9997
2 43929  86.4015 354.1252 0002175  89.4918 270.6527 14.34217713265374
IRIDIUM 170             
1 43930U 19002J   24037.40265151  .00001709  00000+0  26698-3 0  9991
2 43930  86.6135 353.7817 0002462  86.9466 273.2033 14.72277983272468
IRIDIUM 167             
1 43931U 19002K   24036.95563184  .00000474  00000+0  16215-3 0  9990
2 43931  86.4004 353.9320 0002220  88.9283 271.2167 14.34217467265371
IRIDIUM 181             
1 56726U 23068S   24037.05911174  .00000307  00000+0  84756-4 0  9992
2 56726  86.8606  41.1864 0002159 106.1102 254.0337 14.43574010 38075
IRIDIUM 177             
1 56727U 23068T   24037.46965649  .00002599  00000+0  33841-3 0  9997
2 56727  86.1981  17.8771 0002586  92.6163 267.5354 14.80245388 38894
IRIDIUM 174             
1 56728U 23068U   24036.99102668  .00002441  00000+0  31747-3 0  9998
2 56728  86.1988  18.1975 0002596  91.7863 268.3655 14.80262672 38821
IRIDIUM 178             
1 56729U 23068V   24036.91823793  .00000929  00000+0  11887-3 0  9992
2 56729  86.5774  29.4212 0002674  93.6710 266.4817 14.80221998 38811
IRIDIUM 179             
1 56730U 23068W   24036.91286085  .00000910  00000+0  11635-3 0  9992
2 56730  86.6779  31.8903 0002369  95.0294 265.1198 14.80214896 38814
